NORAD_CAT_ID,OBJECT_NAME,OBJECT_TYPE,EPOCH,MEAN_MOTION,ECCENTRICITY,INCLINATION,RA_OF_ASC_NODE,ARG_OF_PERICENTER,MEAN_ANOMALY,BSTAR,MEAN_MOTION_DOT,MEAN_MOTION_DDOT,TLE_LINE0,TLE_LINE1,TLE_LINE2,SEMIMAJOR_AXIS,PERIOD,APOGEE,PERIGEE,DECAYED
49152.0,STARLINK-3081,PAYLOAD,2021-09-20 14:00:01,15.88387652,0.0041573,70.0004,108.9843,158.9102,100.9211,-0.0041798,-0.01243077,0.0004361,0 STARLINK-3081,1 49152U 21082Y   21263.58334491 -.01243077  43610-3 -41798-2 0  9999,2 49152  70.0004 108.9843 0041573 158.9102 100.9211 15.88387652  2248,6684.94,90.658,334.596,279.014,0.0
49152.0,STARLINK-3081,PAYLOAD,2021-09-20 20:00:01,15.87777194,0.0038589,70.0002,108.2624,159.042,89.6197,-0.004312,-0.01230448,0.00042548,0 STARLINK-3081,1 49152U 21082Y   21263.83334491 -.01230448  42548-3 -43120-2 0  9995,2 49152  70.0002 108.2624 0038589 159.0420  89.6197 15.87777194  2276,6686.653,90.693,334.321,282.715,0.0
49152.0,STARLINK-3081,PAYLOAD,2021-09-20 22:00:00,15.87593381,0.0037615,70.0001,108.0219,159.4972,205.3134,-0.0044908,-0.01265266,0.00044721,0 STARLINK-3081,1 49152U 21082Y   21263.91667824 -.01265266  44721-3 -44908-2 0  9999,2 49152  70.0001 108.0219 0037615 159.4972 205.3134 15.87593381  1392,6687.169,90.703,334.1880000000001,283.881,0.0
49152.0,STARLINK-3081,PAYLOAD,2021-09-21 04:00:00,15.86992069,0.0035773,69.9998,107.3007,160.2753,192.6386,-0.0046707,-0.01269459,0.00044742,0 STARLINK-3081,1 49152U 21082Y   21264.16667824 -.01269459  44742-3 -46707-2 0  9997,2 49152  69.9998 107.3007 0035773 160.2753 192.6386 15.86992069  2338,6688.858,90.738,334.651,286.795,0.0
49152.0,STARLINK-3081,PAYLOAD,2021-09-21 12:00:00,15.86160497,0.003184,70.0001,106.3402,160.792,295.4257,-0.004708,-0.01214781,0.0004093,0 STARLINK-3081,1 49152U 21082Y   21264.50001157 -.01214781  40930-3 -47080-2 0  9994,2 49152  70.0001 106.3402 0031840 160.7920 295.4257 15.86160497  2382,6691.196,90.785,334.366,291.756,0.0
49152.0,STARLINK-3081,PAYLOAD,2021-09-21 14:00:01,15.85960438,0.0031187,70.0003,106.1001,160.9624,50.9932,-0.0047602,-0.0121416,0.00040816,0 STARLINK-3081,1 49152U 21082Y   21264.58335648 -.01214160  40816-3 -47602-2 0  9991,2 49152  70.0003 106.1001 0031187 160.9624  50.9932 15.85960438  1491,6691.759,90.797,334.49300000000005,292.754,0.0
49152.0,STARLINK-3081,PAYLOAD,2021-09-21 20:00:01,15.85350713,0.0028705,70.0,105.3808,161.74200000000005,36.87300000000001,-0.0048891,-0.01203166,0.00039911,0 STARLINK-3081,1 49152U 21082Y   21264.83335648 -.01203166  39911-3 -48891-2 0  9998,2 49152  70.0000 105.3808 0028705 161.7420  36.8730 15.85350713  2432,6693.474,90.832,334.55300000000005,296.126,0.0
49152.0,STARLINK-3081,PAYLOAD,2021-09-21 22:00:00,15.85181369,0.0027899,70.0001,105.1412,162.5744,151.395,-0.005212,-0.01269176,0.00043982,0 STARLINK-3081,1 49152U 21082Y   21264.91667824 -.01269176  43982-3 -52120-2 0  9997,2 49152  70.0001 105.1412 0027899 162.5744 151.3950 15.85181369  1540,6693.951,90.841,334.492,297.141,0.0
49152.0,STARLINK-3081,PAYLOAD,2021-09-22 04:00:01,15.84576941,0.0026255,69.9998,104.4224,163.8341,136.1348,-0.0053751,-0.01266688,0.00043582,0 STARLINK-3081,1 49152U 21082Y   21265.16668981 -.01266688  43582-3 -53751-2 0  9992,2 49152  69.9998 104.4224 0026255 163.8341 136.1348 15.84576941  2497,6695.653,90.876,335.098,299.939,0.0
49152.0,STARLINK-3081,PAYLOAD,2021-09-22 14:00:01,15.83539724,0.002146,70.0002,103.2263,166.4939,348.7685,-0.0053962,-0.01074793,0.0,0 STARLINK-3081,1 49152U 21082Y   21265.58334491 -.01074793  00000-0 -53962-2 0  9997,2 49152  70.0002 103.2263 0021460 166.4939 348.7685 15.83539724  1650,6698.5769999999975,90.936,334.81699999999995,306.067,0.0
49152.0,STARLINK-3081,PAYLOAD,2021-09-22 20:00:01,15.82936515,0.0019158,70.0,102.5094,169.1891,330.5595,-0.0055827,-0.01075219,0.0,0 STARLINK-3081,1 49152U 21082Y   21265.83334491 -.01075219  00000-0 -55827-2 0  9991,2 49152  70.0000 102.5094 0019158 169.1891 330.5595 15.82936515  2591,6700.278,90.97,334.98,309.307,0.0
49152.0,STARLINK-3081,PAYLOAD,2021-09-23 04:00:00,15.82148638,0.0016975999999999,69.9997,101.5544,173.34,64.8731,-0.0059753,-0.01100932,0.0,0 STARLINK-3081,1 49152U 21082Y   21266.16667824 -.01100932  00000-0 -59753-2 0  9990,2 49152  69.9997 101.5544 0016976 173.3400  64.8731 15.82148638  2646,6702.503000000002,91.015,335.746,312.9890000000001,0.0
49152.0,STARLINK-3081,PAYLOAD,2021-09-23 12:00:00,15.8136036,0.0013545,70.0002,100.6009,180.6903,155.0225,-0.0063963,-0.01126075,0.0,0 STARLINK-3081,1 49152U 21082Y   21266.50001157 -.01126075  00000-0 -63963-2 0  9993,2 49152  70.0002 100.6009 0013545 180.6903 155.0225 15.81360360  2705,6704.73,91.061,335.676,317.513,0.0
49152.0,STARLINK-3081,PAYLOAD,2021-09-23 14:00:01,15.81136517,0.001268,70.0003,100.3625,183.0549,266.8915,-0.0062254,-0.01088108,0.0,0 STARLINK-3081,1 49152U 21082Y   21266.58334491 -.01088108  00000-0 -62254-2 0  9997,2 49152  70.0003 100.3625 0012680 183.0549 266.8915 15.81136517  1812,6705.363,91.074,335.73,318.725,0.0
49152.0,STARLINK-3081,PAYLOAD,2021-09-23 22:00:01,15.80325533,0.0010415,70.0001,99.4102,193.4707,352.8427,-0.0063963,-0.01075165,0.0,0 STARLINK-3081,1 49152U 21082Y   21266.91668981 -.01075165  00000-0 -63963-2 0  9995,2 49152  70.0001  99.4102 0010415 193.4707 352.8427 15.80325533  1869,6707.656,91.12,336.50699999999995,322.535,0.0
49152.0,STARLINK-3081,PAYLOAD,2021-09-24 04:00:00,15.79723481,0.0009443,69.9998,98.6967,203.8595,323.9793,-0.0065973,-0.01077142,0.0,0 STARLINK-3081,1 49152U 21082Y   21267.16667824 -.01077142  00000-0 -65973-2 0  9998,2 49152  69.9998  98.6967 0009443 203.8595 323.9793 15.79723481  2803,6709.36,91.155,337.561,324.89,0.0
49152.0,STARLINK-3081,PAYLOAD,2021-09-24 14:00:01,15.78737941,0.0008356,70.0002,97.5091,224.4057,151.5389,-0.0071401,-0.0112883,0.0,0 STARLINK-3081,1 49152U 21082Y   21267.58334491 -.01128830  00000-0 -71401-2 0  9999,2 49152  70.0002  97.5091 0008356 224.4057 151.5389 15.78737941  1970,6712.151999999999,91.212,339.626,328.409,0.0
49152.0,STARLINK-3081,PAYLOAD,2021-09-24 20:00:01,15.78130138,0.0008165,69.9999,96.7974,229.4197,126.6705,-0.0072871,-0.01121422,0.0,0 STARLINK-3081,1 49152U 21082Y   21267.83334491 -.01121422  00000-0 -72871-2 0  9999,2 49152  69.9999  96.7974 0008165 229.4197 126.6705 15.78130138  2916,6713.876,91.247,341.223,330.259,0.0
49152.0,STARLINK-3081,PAYLOAD,2021-09-24 22:00:00,15.77925174,0.0007906,70.0,96.5601,230.3864,238.966,-0.0073073999999999,-0.01114686,0.0,0 STARLINK-3081,1 49152U 21082Y   21267.91667824 -.01114686  00000-0 -73074-2 0  9997,2 49152  70.0000  96.5601 0007906 230.3864 238.9660 15.77925174  2021,6714.456999999999,91.259,341.631,331.014,0.0
49152.0,STARLINK-3081,PAYLOAD,2021-09-25 06:00:02,15.7712339,0.0008448,69.9998,95.6121,228.6649,333.1926,-0.0076087,-0.01119623,0.0,0 STARLINK-3081,1 49152U 21082Y   21268.25002315 -.01119623  00000-0 -76087-2 0  9996,2 49152  69.9998  95.6121 0008448 228.6649 333.1926 15.77123390  2072,6716.733,91.305,344.272,332.923,0.0
49152.0,STARLINK-3081,PAYLOAD,2021-09-25 12:00:02,15.76518484,0.0007679,70.0,94.9023,228.0623,312.492,-0.0077902,-0.01115521,0.0,0 STARLINK-3081,1 49152U 21082Y   21268.50002315 -.01115521  00000-0 -77902-2 0  9994,2 49152  70.0000  94.9023 0007679 228.0623 312.4920 15.76518484  3013,6718.451,91.341,345.475,335.157,0.0
49152.0,STARLINK-3081,PAYLOAD,2021-09-26 00:00:00,15.75308038,0.0008685,69.9999,93.4837,230.7796,265.4766,-0.0081651,-0.01109923,0.0,0 STARLINK-3081,1 49152U 21082Y   21269.00001157 -.01109923  00000-0 -81651-2 0  9998,2 49152  69.9999  93.4837 0008685 230.7796 265.4766 15.75308038  2197,6721.892,91.411,349.595,337.9190000000001,0.0
49152.0,STARLINK-3081,PAYLOAD,2021-09-26 04:00:01,15.74906567,0.0004488,69.9999,93.0116,273.3937,87.7004,-0.008333,-0.01109423,0.0,0 STARLINK-3081,1 49152U 21082Y   21269.16668981 -.01109423  00000-0 -83330-2 0  9990,2 49152  69.9999  93.0116 0004488 273.3937  87.7004 15.74906567  3124,6723.034000000002,91.434,347.916,341.88199999999995,0.0
49152.0,STARLINK-3081,PAYLOAD,2021-09-26 14:00:01,15.73903042,0.0003565,70.0003,91.8324,283.3923,278.5122,-0.0087277999999999,-0.01111468,0.0,0 STARLINK-3081,1 49152U 21082Y   21269.58334491 -.01111468  00000-0 -87278-2 0  9999,2 49152  70.0003  91.8324 0003565 283.3923 278.5122 15.73903042  2293,6725.892,91.492,350.154,345.3590000000001,0.0
49152.0,STARLINK-3081,PAYLOAD,2021-09-26 20:00:01,15.73298589,0.0003444,69.9999,91.1258,279.1473,258.5601,-0.0089497,-0.01110399,0.0,0 STARLINK-3081,1 49152U 21082Y   21269.83334491 -.01110399  00000-0 -89497-2 0  9994,2 49152  69.9999  91.1258 0003444 279.1473 258.5601 15.73298589  3229,6727.614000000001,91.527,351.796,347.162,0.0
49152.0,STARLINK-3081,PAYLOAD,2021-09-26 22:00:01,15.73098897,0.0003532,70.0001,90.8902,276.3877,13.1983,-0.0090441,-0.01112339,0.0,0 STARLINK-3081,1 49152U 21082Y   21269.91668981 -.01112339  00000-0 -90441-2 0  9994,2 49152  70.0001  90.8902 0003532 276.3877  13.1983 15.73098897  2343,6728.183000000001,91.539,352.425,347.672,0.0
49152.0,STARLINK-3081,PAYLOAD,2021-09-27 12:00:00,15.71690822,0.0003696,70.0001,89.2443,279.35400000000004,71.1729,-0.0095936,-0.01111257,0.0,0 STARLINK-3081,1 49152U 21082Y   21270.50001157 -.01111257  00000-0 -95936-2 0  9999,2 49152  70.0001  89.2443 0003696 279.3540  71.1729 15.71690822  3332,6732.201,91.621,356.555,351.57800000000015,0.0
49152.0,STARLINK-3081,PAYLOAD,2021-09-27 14:00:01,15.71489145,0.0003712,70.0002,89.0093,282.7436,179.1149,-0.0096705,-0.01110698,0.0,0 STARLINK-3081,1 49152U 21082Y   21270.58334491 -.01110698  00000-0 -96705-2 0  9990,2 49152  70.0002  89.0093 0003712 282.7436 179.1149 15.71489145  2454,6732.776999999999,91.633,357.142,352.14300000000014,0.0
49152.0,STARLINK-3081,PAYLOAD,2021-09-27 22:00:01,15.7063821,0.0003478,70.0001,88.0703,280.0636,266.5923,-0.0090273,-0.01010597,0.0,0 STARLINK-3081,1 49152U 21082Y   21270.91668981 -.01010597  00000-0 -90273-2 0  9992,2 49152  70.0001  88.0703 0003478 280.0636 266.5923 15.70638210  2507,6735.209,91.682,359.416,354.731,0.0
